[{"OBJECT_NAME":"YAOGAN-43 02B","OBJECT_ID":"2024-156B","EPOCH":"2026-03-09T09:55:42.611232","MEAN_MOTION":15.23399653,"ECCENTRICITY":0.00021542,"INCLINATION":34.9944,"RA_OF_ASC_NODE":105.5294,"ARG_OF_PERICENTER":182.9946,"MEAN_ANOMALY":177.0756,"EPHEMERIS_TYPE":0,"CLASSIFICATION_TYPE":"U","NORAD_CAT_ID":60946,"ELEMENT_SET_NO":999,"REV_AT_EPOCH":8422,"BSTAR":0.00062307708,"MEAN_MOTION_DOT":0.00015184,"MEAN_MOTION_DDOT":0},{"OBJECT_NAME":"SITRO-AIS-62","OBJECT_ID":"2025-313BA","EPOCH":"2026-03-09T22:28:04.503072","MEAN_MOTION":15.2313984,"ECCENTRICITY":0.00083903,"INCLINATION":97.4013,"RA_OF_ASC_NODE":145.3565,"ARG_OF_PERICENTER":355.0929,"MEAN_ANOMALY":5.0224,"EPHEMERIS_TYPE":0,"CLASSIFICATION_TYPE":"U","NORAD_CAT_ID":67296,"ELEMENT_SET_NO":999,"REV_AT_EPOCH":1086,"BSTAR":0.00055522855,"MEAN_MOTION_DOT":0.00013063,"MEAN_MOTION_DDOT":0}]
